{"type": "FeatureCollection", "features": [ {"type": "Feature", "properties": {"norad_id": 61182, "name": "GSAT0232 (GALILEO 32)", "group": "gnss", "lat": -30.954793847653953, "lon": 70.78759056689347, "alt_km": 23220.70750566528, "timestamp": "2025-12-22T11:33:20.683754+00:00", "meta": {"OBJECT_NAME": "GSAT0232 (GALILEO 32)", "OBJECT_ID": "2024-167A", "EPOCH": "2025-12-21T05:44:27.225600", "MEAN_MOTION": 1.70473624, "ECCENTRICITY": 0.0001881, "INCLINATION": 55.2384, "RA_OF_ASC_NODE": 226.1977, "ARG_OF_PERICENTER": 205.7333, "MEAN_ANOMALY": 330.6739, "EPHEMERIS_TYPE": 0, "CLASSIFICATION_TYPE": "U", "NORAD_CAT_ID": 61182, "ELEMENT_SET_NO": 999, "REV_AT_EPOCH": 784, "BSTAR": 0, "MEAN_MOTION_DOT": 7.3e-07, "MEAN_MOTION_DDOT": 0}, "tle": {"line1": "1 61182U 24167A   25355.23920400  .00000073  00000+0  00000+0 0  9996", "line2": "2 61182  55.2384 226.1977 0001881 205.7333 330.6739  1.70473624  7846"}}, "geometry": {"type": "Point", "coordinates": [70.78759056689347, -30.954793847653953]}}, {"type": "Feature", "properties": {"norad_id": 61183, "name": "GSAT0226 (GALILEO 31)", "group": "gnss", "lat": -23.174195014440055, "lon": -151.10444581323716, "alt_km": 23227.835508292916, "timestamp": "2025-12-22T11:33:20.683765+00:00", "meta": {"OBJECT_NAME": "GSAT0226 (GALILEO 31)", "OBJECT_ID": "2024-167B", "EPOCH": "2025-12-22T05:43:25.937760", "MEAN_MOTION": 1.70473707, "ECCENTRICITY": 0.0001178, "INCLINATION": 55.2367, "RA_OF_ASC_NODE": 226.1757, "ARG_OF_PERICENTER": 107.8451, "MEAN_ANOMALY": 74.5096, "EPHEMERIS_TYPE": 0, "CLASSIFICATION_TYPE": "U", "NORAD_CAT_ID": 61183, "ELEMENT_SET_NO": 999, "REV_AT_EPOCH": 783, "BSTAR": 0, "MEAN_MOTION_DOT": 7.4e-07, "MEAN_MOTION_DDOT": 0}, "tle": {"line1": "1 61183U 24167B   25356.23849465  .00000074  00000+0  00000+0 0  9990", "line2": "2 61183  55.2367 226.1757 0001178 107.8451  74.5096  1.70473707  7837"}}, "geometry": {"type": "Point", "coordinates": [-151.10444581323716, -23.174195014440055]}}, {"type": "Feature", "properties": {"norad_id": 61186, "name": "BEIDOU-3 M25 (C47)", "group": "gnss", "lat": 27.003879118484363, "lon": 107.16520013795254, "alt_km": 21538.49602994032, "timestamp": "2025-12-22T11:33:20.683778+00:00", "meta": {"OBJECT_NAME": "BEIDOU-3 M25 (C47)", "OBJECT_ID": "2024-168B", "EPOCH": "2025-12-21T10:54:12.559392", "MEAN_MOTION": 1.86230226, "ECCENTRICITY": 0.00054533, "INCLINATION": 54.6344, "RA_OF_ASC_NODE": 308.4188, "ARG_OF_PERICENTER": 299.6756, "MEAN_ANOMALY": 237.8086, "EPHEMERIS_TYPE": 0, "CLASSIFICATION_TYPE": "U", "NORAD_CAT_ID": 61186, "ELEMENT_SET_NO": 999, "REV_AT_EPOCH": 847, "BSTAR": 0, "MEAN_MOTION_DOT": -6.3e-07, "MEAN_MOTION_DDOT": 0}, "tle": {"line1": "1 61186U 24168B   25355.45431203 -.00000063  00000+0  00000+0 0  9993", "line2": "2 61186  54.6344 308.4188 0005453 299.6756 237.8086  1.86230226  8476"}}, "geometry": {"type": "Point", "coordinates": [107.16520013795254, 27.003879118484363]}}, {"type": "Feature", "properties": {"norad_id": 61187, "name": "BEIDOU-3 M27 (C49)", "group": "gnss", "lat": -53.1575267670337, "lon": -122.93429085202534, "alt_km": 21530.22749630509, "timestamp": "2025-12-22T11:33:20.683791+00:00", "meta": {"OBJECT_NAME": "BEIDOU-3 M27 (C49)", "OBJECT_ID": "2024-168C", "EPOCH": "2025-12-22T03:50:36.507264", "MEAN_MOTION": 1.86230347, "ECCENTRICITY": 0.0002543, "INCLINATION": 54.6292, "RA_OF_ASC_NODE": 308.3781, "ARG_OF_PERICENTER": 340.4099, "MEAN_ANOMALY": 85.2457, "EPHEMERIS_TYPE": 0, "CLASSIFICATION_TYPE": "U", "NORAD_CAT_ID": 61187, "ELEMENT_SET_NO": 999, "REV_AT_EPOCH": 596, "BSTAR": 0, "MEAN_MOTION_DOT": -5.9e-07, "MEAN_MOTION_DDOT": 0}, "tle": {"line1": "1 61187U 24168C   25356.16014476 -.00000059  00000+0  00000+0 0  9997", "line2": "2 61187  54.6292 308.3781 0002543 340.4099  85.2457  1.86230347  5961"}}, "geometry": {"type": "Point", "coordinates": [-122.93429085202534, -53.1575267670337]}}, {"type": "Feature", "properties": {"norad_id": 62339, "name": "GPS BIII-7  (PRN 01)", "group": "gnss", "lat": 54.60626902644334, "lon": 79.88211773186468, "alt_km": 20186.359346320278, "timestamp": "2025-12-22T11:33:20.683805+00:00", "meta": {"OBJECT_NAME": "GPS BIII-7  (PRN 01)", "OBJECT_ID": "2024-242A", "EPOCH": "2025-12-18T08:46:28.895808", "MEAN_MOTION": 2.00568182, "ECCENTRICITY": 0.0012509, "INCLINATION": 54.922, "RA_OF_ASC_NODE": 341.5124, "ARG_OF_PERICENTER": 345.6877, "MEAN_ANOMALY": 17.1618, "EPHEMERIS_TYPE": 0, "CLASSIFICATION_TYPE": "U", "NORAD_CAT_ID": 62339, "ELEMENT_SET_NO": 999, "REV_AT_EPOCH": 763, "BSTAR": 0, "MEAN_MOTION_DOT": -8.5e-07, "MEAN_MOTION_DDOT": 0}, "tle": {"line1": "1 62339U 24242A   25352.36561222 -.00000085  00000+0  00000+0 0  9993", "line2": "2 62339  54.9220 341.5124 0012509 345.6877  17.1618  2.00568182  7636"}}, "geometry": {"type": "Point", "coordinates": [79.88211773186468, 54.60626902644334]}}, {"type": "Feature", "properties": {"norad_id": 62850, "name": "NVS-02 (IRNSS-1K)", "group": "gnss", "lat": -13.706440127943798, "lon": -176.33613794507482, "alt_km": 35825.10707269612, "timestamp": "2025-12-22T11:33:20.683817+00:00", "meta": {"OBJECT_NAME": "NVS-02 (IRNSS-1K)", "OBJECT_ID": "2025-020A", "EPOCH": "2025-12-21T17:43:24.486240", "MEAN_MOTION": 2.1760093, "ECCENTRICITY": 0.7347352, "INCLINATION": 20.9619, "RA_OF_ASC_NODE": 324.4018, "ARG_OF_PERICENTER": 32.067, "MEAN_ANOMALY": 356.4982, "EPHEMERIS_TYPE": 0, "CLASSIFICATION_TYPE": "U", "NORAD_CAT_ID": 62850, "ELEMENT_SET_NO": 999, "REV_AT_EPOCH": 711, "BSTAR": 0.00018832, "MEAN_MOTION_DOT": 1.08e-06, "MEAN_MOTION_DDOT": 0}, "tle": {"line1": "1 62850U 25020A   25355.73847785  .00000108  00000+0  18832-3 0  9992", "line2": "2 62850  20.9619 324.4018 7347352  32.0670 356.4982  2.17600930  7115"}}, "geometry": {"type": "Point", "coordinates": [-176.33613794507482, -13.706440127943798]}}, {"type": "Feature", "properties": {"norad_id": 62876, "name": "QZS-6 (QZSS/PRN 200)", "group": "gnss", "lat": -0.05459747152343474, "lon": -4.822839068032867, "alt_km": 35784.496323754654, "timestamp": "2025-12-22T11:33:20.683829+00:00", "meta": {"OBJECT_NAME": "QZS-6 (QZSS/PRN 200)", "OBJECT_ID": "2025-023A", "EPOCH": "2025-12-21T11:55:02.610336", "MEAN_MOTION": 1.0027204, "ECCENTRICITY": 0.00015008, "INCLINATION": 0.0512, "RA_OF_ASC_NODE": 70.3609, "ARG_OF_PERICENTER": 209.4856, "MEAN_ANOMALY": 79.7745, "EPHEMERIS_TYPE": 0, "CLASSIFICATION_TYPE": "U", "NORAD_CAT_ID": 62876, "ELEMENT_SET_NO": 999, "REV_AT_EPOCH": 317, "BSTAR": 0, "MEAN_MOTION_DOT": -2.11e-06, "MEAN_MOTION_DDOT": 0}, "tle": {"line1": "1 62876U 25023A   25355.49655799 -.00000211  00000+0  00000+0 0  9998", "line2": "2 62876   0.0512  70.3609 0001500 209.4856  79.7745  1.00272040  3170"}}, "geometry": {"type": "Point", "coordinates": [-4.822839068032867, -0.05459747152343474]}}, {"type": "Feature", "properties": {"norad_id": 63130, "name": "COSMOS 2584 (704K)", "group": "gnss", "lat": -11.533721327828063, "lon": -95.71250258078292, "alt_km": 19114.141773022075, "timestamp": "2025-12-22T11:33:20.683840+00:00", "meta": {"OBJECT_NAME": "COSMOS 2584 (704K)", "OBJECT_ID": "2025-042A", "EPOCH": "2025-12-21T07:00:00.966240", "MEAN_MOTION": 2.13103074, "ECCENTRICITY": 0.00077364, "INCLINATION": 64.9804, "RA_OF_ASC_NODE": 78.8547, "ARG_OF_PERICENTER": 219.241, "MEAN_ANOMALY": 140.7412, "EPHEMERIS_TYPE": 0, "CLASSIFICATION_TYPE": "U", "NORAD_CAT_ID": 63130, "ELEMENT_SET_NO": 999, "REV_AT_EPOCH": 625, "BSTAR": 0, "MEAN_MOTION_DOT": -1.1e-07, "MEAN_MOTION_DDOT": 0}, "tle": {"line1": "1 63130U 25042A   25355.29167785 -.00000011  00000+0  00000+0 0  9992", "line2": "2 63130  64.9804  78.8547 0007736 219.2410 140.7412  2.13103074  6250"}}, "geometry": {"type": "Point", "coordinates": [-95.71250258078292, -11.533721327828063]}}, {"type": "Feature", "properties": {"norad_id": 64202, "name": "GPS BIII-8  (PRN 21)", "group": "gnss", "lat": -52.78905503376288, "lon": -28.419679228909025, "alt_km": 20174.53787182054, "timestamp": "2025-12-22T11:33:20.683851+00:00", "meta": {"OBJECT_NAME": "GPS BIII-8  (PRN 21)", "OBJECT_ID": "2025-116A", "EPOCH": "2025-12-21T15:32:25.982016", "MEAN_MOTION": 2.00557819, "ECCENTRICITY": 0.0005846, "INCLINATION": 55.1118, "RA_OF_ASC_NODE": 38.2817, "ARG_OF_PERICENTER": 310.1313, "MEAN_ANOMALY": 91.6448, "EPHEMERIS_TYPE": 0, "CLASSIFICATION_TYPE": "U", "NORAD_CAT_ID": 64202, "ELEMENT_SET_NO": 999, "REV_AT_EPOCH": 431, "BSTAR": 0, "MEAN_MOTION_DOT": -5.4e-07, "MEAN_MOTION_DDOT": 0}, "tle": {"line1": "1 64202U 25116A   25355.64752294 -.00000054  00000+0  00000+0 0  9996", "line2": "2 64202  55.1118  38.2817 0005846 310.1313  91.6448  2.00557819  4318"}}, "geometry": {"type": "Point", "coordinates": [-28.419679228909025, -52.78905503376288]}}, {"type": "Feature", "properties": {"norad_id": 65590, "name": "COSMOS 2596 (708K)", "group": "gnss", "lat": -42.89748455871374, "lon": -64.88645347660143, "alt_km": 19099.34055948734, "timestamp": "2025-12-22T11:33:20.683862+00:00", "meta": {"OBJECT_NAME": "COSMOS 2596 (708K)", "OBJECT_ID": "2025-206B", "EPOCH": "2025-12-22T03:59:43.719936", "MEAN_MOTION": 2.1310041, "ECCENTRICITY": 0.0014089, "INCLINATION": 64.7392, "RA_OF_ASC_NODE": 321.1476, "ARG_OF_PERICENTER": 307.2643, "MEAN_ANOMALY": 122.2256, "EPHEMERIS_TYPE": 0, "CLASSIFICATION_TYPE": "U", "NORAD_CAT_ID": 65590, "ELEMENT_SET_NO": 999, "REV_AT_EPOCH": 214, "BSTAR": 0, "MEAN_MOTION_DOT": -4.3e-07, "MEAN_MOTION_DDOT": 0}, "tle": {"line1": "1 65590U 25206B   25356.16647824 -.00000043  00000+0  00000+0 0  9995", "line2": "2 65590  64.7392 321.1476 0014089 307.2643 122.2256  2.13100410  2148"}}, "geometry": {"type": "Point", "coordinates": [-64.88645347660143, -42.89748455871374]}}]}